{
  "type": "FeatureCollection",
  "features": [
    {
      "type": "Feature",
      "properties": {
        "norad_id": 64202,
        "name": "GPS BIII-8  (PRN 21)",
        "group": "gnss",
        "lat": NaN,
        "lon": NaN,
        "alt_km": NaN,
        "timestamp": "2025-12-01T02:46:59.661500+00:00",
        "meta": {
          "OBJECT_NAME": "GPS BIII-8  (PRN 21)",
          "OBJECT_ID": "2025-116A",
          "EPOCH": "2025-11-27T15:37:05.200896",
          "MEAN_MOTION": 2.0055919,
          "ECCENTRICITY": 0.00048631,
          "INCLINATION": 55.0944,
          "RA_OF_ASC_NODE": 39.2516,
          "ARG_OF_PERICENTER": 304.421,
          "MEAN_ANOMALY": 50.9436,
          "EPHEMERIS_TYPE": 0,
          "CLASSIFICATION_TYPE": "U",
          "NORAD_CAT_ID": 64202,
          "ELEMENT_SET_NO": 999,
          "REV_AT_EPOCH": 382,
          "BSTAR": 0,
          "MEAN_MOTION_DOT": -6e-07,
          "MEAN_MOTION_DDOT": 0
        }
      },
      "geometry": {
        "type": "Point",
        "coordinates": [
          NaN,
          NaN
        ]
      }
    },
    {
      "type": "Feature",
      "properties": {
        "norad_id": 65590,
        "name": "COSMOS 2596 (708K)",
        "group": "gnss",
        "lat": NaN,
        "lon": NaN,
        "alt_km": NaN,
        "timestamp": "2025-12-01T02:46:59.661517+00:00",
        "meta": {
          "OBJECT_NAME": "COSMOS 2596 (708K)",
          "OBJECT_ID": "2025-206B",
          "EPOCH": "2025-11-30T02:09:16.622208",
          "MEAN_MOTION": 2.13100321,
          "ECCENTRICITY": 0.00140792,
          "INCLINATION": 64.7512,
          "RA_OF_ASC_NODE": 321.9152,
          "ARG_OF_PERICENTER": 304.6953,
          "MEAN_ANOMALY": 108.4937,
          "EPHEMERIS_TYPE": 0,
          "CLASSIFICATION_TYPE": "U",
          "NORAD_CAT_ID": 65590,
          "ELEMENT_SET_NO": 999,
          "REV_AT_EPOCH": 166,
          "BSTAR": 0,
          "MEAN_MOTION_DOT": -2.1e-07,
          "MEAN_MOTION_DDOT": 0
        }
      },
      "geometry": {
        "type": "Point",
        "coordinates": [
          NaN,
          NaN
        ]
      }
    }
  ]
}